25676,GLOBALSTAR M045,1999,117.36,-1.0,-,52.0,Inactive,0,LEO,Kazakhstan,Globalstar,Unknown,Unknown,Soyuz,1 25676U 99019A   24009.90629760 -.00000039  00000+0  48492-3 0  9990,2 25676  51.9997 359.5368 0000537 283.2262  87.3262 12.27025280129039,12.2702528,5.37e-05,LEO
25677,GLOBALSTAR M019,1999,118.63,-1.0,-,51.99,Inactive,0,LEO,Kazakhstan,Globalstar,Unknown,Unknown,Soyuz,1 25677U 99019B   24010.40068753 -.00000163  00000+0 -75813-3 0  9993,2 25677  51.9877  91.6445 0000275  37.4887  42.4315 12.13847752121728,12.13847752,2.75e-05,LEO
25678,GLOBALSTAR M044,1999,120.99,-1.0,-,52.0,Inactive,0,LEO,Kazakhstan,Globalstar,Unknown,Unknown,Soyuz,1 25678U 99019C   24010.34529966 -.00000068  00000+0  22228-3 0  9990,2 25678  51.9997 337.6282 0006553 107.3798  60.4450 11.90226956108925,11.90226956,0.0006553,LEO
25679,GLOBALSTAR M042,1999,117.83,-1.0,-,52.0,Inactive,0,LEO,Kazakhstan,Globalstar,Unknown,Unknown,Soyuz,1 25679U 99019D   24009.64762094 -.00000075  00000+0  16492-3 0  9997,2 25679  52.0019  91.7034 0002313 293.6112 232.9427 12.22053914121120,12.22053914,0.0002313,LEO
25770,GLOBALSTAR M025,1999,128.28,-1.0,-,51.98,Inactive,0,MEO,USA,Globalstar,Unknown,Unknown,Delta,1 25770U 99031A   24009.92041977 -.00000051  00000+0  50999-3 0  9998,2 25770  51.9832 293.7674 0001791  11.8464  63.9990 11.22548492422834,11.22548492,0.0001791,MEO
25771,GLOBALSTAR M049,1999,129.48,-1.0,-,51.99,Inactive,0,MEO,USA,Globalstar,Unknown,Unknown,Delta,1 25771U 99031B   24009.79631172 -.00000013  00000+0  18207-2 0  9999,2 25771  51.9891 302.4646 0002436 210.1992 149.8664 11.12100920 59088,11.1210092,0.0002436,MEO
25772,GLOBALSTAR M047,1999,127.22,-1.0,-,51.99,Inactive,0,LEO,USA,Globalstar,Unknown,Unknown,Delta,1 25772U 99031C   24010.30629305 -.00000079  00000+0 -25051-3 0  9993,2 25772  51.9871 348.3256 0016500  82.5835 277.6845 11.31917536 86550,11.31917536,0.00165,LEO
25773,GLOBALSTAR M052,1999,129.14,-1.0,-,51.99,Inactive,0,MEO,USA,Globalstar,Unknown,Unknown,Delta,1 25773U 99031D   24009.45812622 -.00000107  00000+0 -13945-2 0  9994,2 25773  51.9886  59.2793 0002180  35.0191  68.9095 11.15047187419970,11.15047187,0.000218,MEO
